COSMOS 2251 DEB         
1 35904U 93036AUT 17343.02322015  .00001111  00000-0  25176-3 0  9993
2 35904  74.0262  98.3694 0027986 246.4315 113.3909 14.57109036233493
